ONEWEB-0116             
1 48046U 21025E   25049.47624289  .00000219  00000+0  56457-3 0  9995
2 48046  87.8887  56.3622 0001881  94.7054 265.4290 13.13467719190157
ONEWEB-0150             
1 48047U 21025F   25049.75556376  .00000148  00000+0  37045-3 0  9991
2 48047  87.8879  56.3106 0001770  84.1627 275.9704 13.13468873190082
ONEWEB-0107             
1 48048U 21025G   25049.52861869  .00000223  00000+0  57639-3 0  9998
2 48048  87.8879  56.3538 0002003  78.0742 282.0612 13.13468626190030
ONEWEB-0101             
1 48049U 21025H   25049.72064549 -.00000100  00000+0 -30838-3 0  9999
2 48049  87.8885  56.3463 0001974  87.0152 273.1203 13.13468780190034
ONEWEB-0113             
1 48050U 21025J   25049.54606535  .00000390  00000+0  10321-2 0  9991
2 48050  87.8883  56.3611 0001813  92.9019 267.2318 13.13471812190095
ONEWEB-0112             
1 48051U 21025K   25049.76191075  .00000287  00000+0  75044-3 0  9993
2 48051  87.8878  56.3043 0001805  88.5439 271.5897 13.13468787190140
ONEWEB-0156             
1 48052U 21025L   25049.77141593  .00000379  00000+0  10038-2 0  9998
2 48052  87.8884  56.3093 0001796  85.6131 274.5203 13.13456523190126
ONEWEB-0161             
1 48053U 21025M   25049.51591904 -.00000151  00000+0 -44792-3 0  9991
2 48053  87.8885  56.3736 0001925  84.4761 275.6587 13.13469677190011
